{"type": "FeatureCollection", "features": [ {"type": "Feature", "properties": {"norad_id": 34529, "name": "IRIDIUM 33 DEB", "group": "iridium-33-debris", "lat": 71.35993731483013, "lon": 41.37578830035623, "alt_km": 748.306673747773, "timestamp": "2025-12-24T05:51:19.994307+00:00", "meta": {"OBJECT_NAME": "IRIDIUM 33 DEB", "OBJECT_ID": "1997-051HW", "EPOCH": "2025-12-23T12:51:13.501152", "MEAN_MOTION": 14.4062425, "ECCENTRICITY": 0.0006028, "INCLINATION": 86.363, "RA_OF_ASC_NODE": 30.809, "ARG_OF_PERICENTER": 146.0687, "MEAN_ANOMALY": 214.0899, "EPHEMERIS_TYPE": 0, "CLASSIFICATION_TYPE": "U", "NORAD_CAT_ID": 34529, "ELEMENT_SET_NO": 999, "REV_AT_EPOCH": 88297, "BSTAR": 0.00011429374, "MEAN_MOTION_DOT": 3.84e-06, "MEAN_MOTION_DDOT": 0}, "tle": {"line1": "1 34529U 97051HW  25357.53557293  .00000384  00000+0  11429-3 0  9990", "line2": "2 34529  86.3630  30.8090 0006028 146.0687 214.0899 14.40624250882974"}}, "geometry": {"type": "Point", "coordinates": [41.37578830035623, 71.35993731483013]}}, {"type": "Feature", "properties": {"norad_id": 34538, "name": "IRIDIUM 33 DEB", "group": "iridium-33-debris", "lat": -5.641487904952698, "lon": 0.14742460887345302, "alt_km": 744.0822073580557, "timestamp": "2025-12-24T05:51:19.994317+00:00", "meta": {"OBJECT_NAME": "IRIDIUM 33 DEB", "OBJECT_ID": "1997-051JF", "EPOCH": "2025-12-23T18:30:56.030112", "MEAN_MOTION": 14.42708965, "ECCENTRICITY": 0.00319624, "INCLINATION": 86.2765, "RA_OF_ASC_NODE": 0.7229, "ARG_OF_PERICENTER": 289.7763, "MEAN_ANOMALY": 131.869, "EPHEMERIS_TYPE": 0, "CLASSIFICATION_TYPE": "U", "NORAD_CAT_ID": 34538, "ELEMENT_SET_NO": 999, "REV_AT_EPOCH": 87915, "BSTAR": 0.00089052963, "MEAN_MOTION_DOT": 3e-05, "MEAN_MOTION_DDOT": 0}, "tle": {"line1": "1 34538U 97051JF  25357.77148183  .00003000  00000+0  89053-3 0  9996", "line2": "2 34538  86.2765   0.7229 0031962 289.7763 131.8690 14.42708965879156"}}, "geometry": {"type": "Point", "coordinates": [0.14742460887345302, -5.641487904952698]}}, {"type": "Feature", "properties": {"norad_id": 34540, "name": "IRIDIUM 33 DEB", "group": "iridium-33-debris", "lat": -33.3747574125678, "lon": -60.088598343742525, "alt_km": 661.0080558432201, "timestamp": "2025-12-24T05:51:19.994327+00:00", "meta": {"OBJECT_NAME": "IRIDIUM 33 DEB", "OBJECT_ID": "1997-051JH", "EPOCH": "2025-12-22T19:58:08.744160", "MEAN_MOTION": 14.75512106, "ECCENTRICITY": 0.00179406, "INCLINATION": 86.3119, "RA_OF_ASC_NODE": 302.992, "ARG_OF_PERICENTER": 125.3836, "MEAN_ANOMALY": 266.2203, "EPHEMERIS_TYPE": 0, "CLASSIFICATION_TYPE": "U", "NORAD_CAT_ID": 34540, "ELEMENT_SET_NO": 999, "REV_AT_EPOCH": 89170, "BSTAR": 0.0015814186, "MEAN_MOTION_DOT": 0.00010821, "MEAN_MOTION_DDOT": 0}, "tle": {"line1": "1 34540U 97051JH  25356.83204565  .00010821  00000+0  15814-2 0  9994", "line2": "2 34540  86.3119 302.9920 0017940 125.3836 266.2203 14.75512106891708"}}, "geometry": {"type": "Point", "coordinates": [-60.088598343742525, -33.3747574125678]}}, {"type": "Feature", "properties": {"norad_id": 34648, "name": "IRIDIUM 33 DEB", "group": "iridium-33-debris", "lat": -1.8180404474308505, "lon": -82.81478849970362, "alt_km": 866.6341991632517, "timestamp": "2025-12-24T05:51:19.994338+00:00", "meta": {"OBJECT_NAME": "IRIDIUM 33 DEB", "OBJECT_ID": "1997-051JZ", "EPOCH": "2025-12-23T17:57:25.669728", "MEAN_MOTION": 14.11798527, "ECCENTRICITY": 0.01789357, "INCLINATION": 86.3896, "RA_OF_ASC_NODE": 277.5003, "ARG_OF_PERICENTER": 264.3134, "MEAN_ANOMALY": 93.7623, "EPHEMERIS_TYPE": 0, "CLASSIFICATION_TYPE": "U", "NORAD_CAT_ID": 34648, "ELEMENT_SET_NO": 999, "REV_AT_EPOCH": 85116, "BSTAR": 0.0063256678, "MEAN_MOTION_DOT": 0.00013439, "MEAN_MOTION_DDOT": 0}, "tle": {"line1": "1 34648U 97051JZ  25357.74821377  .00013439  00000+0  63257-2 0  9992", "line2": "2 34648  86.3896 277.5003 0178935 264.3134  93.7623 14.11798527851163"}}, "geometry": {"type": "Point", "coordinates": [-82.81478849970362, -1.8180404474308505]}}, {"type": "Feature", "properties": {"norad_id": 34651, "name": "IRIDIUM 33 DEB", "group": "iridium-33-debris", "lat": -75.14410432028646, "lon": 121.49550355344151, "alt_km": 857.9587308324235, "timestamp": "2025-12-24T05:51:19.994348+00:00", "meta": {"OBJECT_NAME": "IRIDIUM 33 DEB", "OBJECT_ID": "1997-051KC", "EPOCH": "2025-12-19T16:44:48.420096", "MEAN_MOTION": 14.25922062, "ECCENTRICITY": 0.01422464, "INCLINATION": 86.2827, "RA_OF_ASC_NODE": 137.6175, "ARG_OF_PERICENTER": 181.9677, "MEAN_ANOMALY": 178.0974, "EPHEMERIS_TYPE": 0, "CLASSIFICATION_TYPE": "U", "NORAD_CAT_ID": 34651, "ELEMENT_SET_NO": 999, "REV_AT_EPOCH": 85995, "BSTAR": 0.0022061693, "MEAN_MOTION_DOT": 5.865e-05, "MEAN_MOTION_DDOT": 0}, "tle": {"line1": "1 34651U 97051KC  25353.69778264  .00005865  00000+0  22062-2 0  9995", "line2": "2 34651  86.2827 137.6175 0142246 181.9677 178.0974 14.25922062859957"}}, "geometry": {"type": "Point", "coordinates": [121.49550355344151, -75.14410432028646]}}, {"type": "Feature", "properties": {"norad_id": 34652, "name": "IRIDIUM 33 DEB", "group": "iridium-33-debris", "lat": 31.299379028189307, "lon": -22.886278330915058, "alt_km": 697.36101215698, "timestamp": "2025-12-24T05:51:19.994358+00:00", "meta": {"OBJECT_NAME": "IRIDIUM 33 DEB", "OBJECT_ID": "1997-051KD", "EPOCH": "2025-12-23T23:25:38.355168", "MEAN_MOTION": 14.62155088, "ECCENTRICITY": 0.0025453, "INCLINATION": 86.332, "RA_OF_ASC_NODE": 334.9977, "ARG_OF_PERICENTER": 256.9837, "MEAN_ANOMALY": 165.3312, "EPHEMERIS_TYPE": 0, "CLASSIFICATION_TYPE": "U", "NORAD_CAT_ID": 34652, "ELEMENT_SET_NO": 999, "REV_AT_EPOCH": 88648, "BSTAR": 0.00095749422, "MEAN_MOTION_DOT": 4.859e-05, "MEAN_MOTION_DDOT": 0}, "tle": {"line1": "1 34652U 97051KD  25357.97613837  .00004859  00000+0  95749-3 0  9990", "line2": "2 34652  86.3320 334.9977 0025453 256.9837 165.3312 14.62155088886480"}}, "geometry": {"type": "Point", "coordinates": [-22.886278330915058, 31.299379028189307]}}, {"type": "Feature", "properties": {"norad_id": 34690, "name": "IRIDIUM 33 DEB", "group": "iridium-33-debris", "lat": -35.16071833591324, "lon": 29.43288709074763, "alt_km": 709.1585019324193, "timestamp": "2025-12-24T05:51:19.994368+00:00", "meta": {"OBJECT_NAME": "IRIDIUM 33 DEB", "OBJECT_ID": "1997-051KM", "EPOCH": "2025-12-23T02:05:55.177152", "MEAN_MOTION": 14.55131538, "ECCENTRICITY": 0.00096335, "INCLINATION": 86.3772, "RA_OF_ASC_NODE": 32.4934, "ARG_OF_PERICENTER": 354.9815, "MEAN_ANOMALY": 35.335, "EPHEMERIS_TYPE": 0, "CLASSIFICATION_TYPE": "U", "NORAD_CAT_ID": 34690, "ELEMENT_SET_NO": 999, "REV_AT_EPOCH": 88245, "BSTAR": 0.00039542617, "MEAN_MOTION_DOT": 1.728e-05, "MEAN_MOTION_DDOT": 0}, "tle": {"line1": "1 34690U 97051KM  25357.08744418  .00001728  00000+0  39543-3 0  9996", "line2": "2 34690  86.3772  32.4934 0009633 354.9815  35.3350 14.55131538882450"}}, "geometry": {"type": "Point", "coordinates": [29.43288709074763, -35.16071833591324]}}, {"type": "Feature", "properties": {"norad_id": 34693, "name": "IRIDIUM 33 DEB", "group": "iridium-33-debris", "lat": -20.74385130027644, "lon": 119.50034233722769, "alt_km": 486.0622886171559, "timestamp": "2025-12-24T05:51:19.994378+00:00", "meta": {"OBJECT_NAME": "IRIDIUM 33 DEB", "OBJECT_ID": "1997-051KQ", "EPOCH": "2025-12-23T19:41:55.330656", "MEAN_MOTION": 15.30604195, "ECCENTRICITY": 0.00103314, "INCLINATION": 86.3059, "RA_OF_ASC_NODE": 298.3092, "ARG_OF_PERICENTER": 33.2484, "MEAN_ANOMALY": 356.9991, "EPHEMERIS_TYPE": 0, "CLASSIFICATION_TYPE": "U", "NORAD_CAT_ID": 34693, "ELEMENT_SET_NO": 999, "REV_AT_EPOCH": 89084, "BSTAR": 0.0045104698, "MEAN_MOTION_DOT": 0.00135771, "MEAN_MOTION_DDOT": 0}, "tle": {"line1": "1 34693U 97051KQ  25357.82077929  .00135771  00000+0  45105-2 0  9993", "line2": "2 34693  86.3059 298.3092 0010331  33.2484 356.9991 15.30604195890848"}}, "geometry": {"type": "Point", "coordinates": [119.50034233722769, -20.74385130027644]}}, {"type": "Feature", "properties": {"norad_id": 34696, "name": "IRIDIUM 33 DEB", "group": "iridium-33-debris", "lat": 11.881691431540691, "lon": -158.63635013931543, "alt_km": 635.9849332466165, "timestamp": "2025-12-24T05:51:19.994388+00:00", "meta": {"OBJECT_NAME": "IRIDIUM 33 DEB", "OBJECT_ID": "1997-051KT", "EPOCH": "2025-12-23T20:04:25.434336", "MEAN_MOTION": 14.6559156, "ECCENTRICITY": 0.00738952, "INCLINATION": 86.1849, "RA_OF_ASC_NODE": 22.3578, "ARG_OF_PERICENTER": 130.1788, "MEAN_ANOMALY": 48.2218, "EPHEMERIS_TYPE": 0, "CLASSIFICATION_TYPE": "U", "NORAD_CAT_ID": 34696, "ELEMENT_SET_NO": 999, "REV_AT_EPOCH": 86835, "BSTAR": 0.0041353445, "MEAN_MOTION_DOT": 0.00023449, "MEAN_MOTION_DDOT": 0}, "tle": {"line1": "1 34696U 97051KT  25357.83640549  .00023449  00000+0  41353-2 0  9990", "line2": "2 34696  86.1849  22.3578 0073895 130.1788  48.2218 14.65591560868350"}}, "geometry": {"type": "Point", "coordinates": [-158.63635013931543, 11.881691431540691]}}, {"type": "Feature", "properties": {"norad_id": 34765, "name": "IRIDIUM 33 DEB", "group": "iridium-33-debris", "lat": 71.4269053276537, "lon": -163.16188395656215, "alt_km": 744.8774781633738, "timestamp": "2025-12-24T05:51:19.994398+00:00", "meta": {"OBJECT_NAME": "IRIDIUM 33 DEB", "OBJECT_ID": "1997-051LJ", "EPOCH": "2025-12-23T02:58:27.844896", "MEAN_MOTION": 14.40490027, "ECCENTRICITY": 0.00166531, "INCLINATION": 86.3383, "RA_OF_ASC_NODE": 28.3053, "ARG_OF_PERICENTER": 176.053, "MEAN_ANOMALY": 247.6854, "EPHEMERIS_TYPE": 0, "CLASSIFICATION_TYPE": "U", "NORAD_CAT_ID": 34765, "ELEMENT_SET_NO": 999, "REV_AT_EPOCH": 87763, "BSTAR": 0.00035770807, "MEAN_MOTION_DOT": 1.159e-05, "MEAN_MOTION_DDOT": 0}, "tle": {"line1": "1 34765U 97051LJ  25357.12393339  .00001159  00000+0  35771-3 0  9993", "line2": "2 34765  86.3383  28.3053 0016653 176.0530 247.6854 14.40490027877630"}}, "geometry": {"type": "Point", "coordinates": [-163.16188395656215, 71.4269053276537]}}]}